NORAD_CAT_ID,OBJECT_NAME,OBJECT_TYPE,EPOCH,MEAN_MOTION,ECCENTRICITY,INCLINATION,RA_OF_ASC_NODE,ARG_OF_PERICENTER,MEAN_ANOMALY,BSTAR,MEAN_MOTION_DOT,MEAN_MOTION_DDOT,TLE_LINE0,TLE_LINE1,TLE_LINE2,SEMIMAJOR_AXIS,PERIOD,APOGEE,PERIGEE,DECAYED
52120.0,STARLINK-3534,PAYLOAD,2022-11-22 13:04:22,15.08907469,0.0002265,53.2196,80.2474,48.1982,311.9203,-0.00089182,-0.0001448,0.0,0 STARLINK-3534,1 52120U 22029AJ  22326.54471001 -.00014480  00000-0 -89182-3 0  9992,2 52120  53.2196  80.2474 0002265  48.1982 311.9203 15.08907469 39167,6917.674,95.433,541.106,537.972,0.0
52120.0,STARLINK-3534,PAYLOAD,2022-11-23 09:44:26,15.08832333,0.0001919,53.2196,76.3828,41.3716,318.7421,-5.2725e-05,-1.127e-05,0.0,0 STARLINK-3534,1 52120U 22029AJ  22327.40585792 -.00001127  00000-0 -52725-4 0  9999,2 52120  53.2196  76.3828 0001919  41.3716 318.7421 15.08832333 39299,6917.904,95.438,541.096,538.441,0.0
52120.0,STARLINK-3534,PAYLOAD,2022-11-24 09:35:13,15.08830594,0.000207,53.2199,71.9234,37.4721,322.6416,-1.5382e-05,-5.33e-06,0.0,0 STARLINK-3534,1 52120U 22029AJ  22328.39946291 -.00000533  00000-0 -15382-4 0  9991,2 52120  53.2199  71.9234 0002070  37.4721 322.6416 15.08830594 39447,6917.909000000002,95.438,541.206,538.342,0.0
52120.0,STARLINK-3534,PAYLOAD,2022-11-24 11:10:36,15.08831151,0.000207,53.2199,71.6261,37.1467,322.9668,-1.123e-05,-4.67e-06,0.0,0 STARLINK-3534,1 52120U 22029AJ  22328.46570279 -.00000467  00000-0 -11230-4 0  9992,2 52120  53.2199  71.6261 0002070  37.1467 322.9668 15.08831151 39451,6917.906999999997,95.438,541.2040000000002,538.34,0.0
52120.0,STARLINK-3534,PAYLOAD,2022-11-24 14:21:22,15.0883313,0.0002105,53.2198,71.0319,37.1574,322.9563,7.281699999999997e-06,-1.72e-06,0.0,0 STARLINK-3534,1 52120U 22029AJ  22328.59818176 -.00000172  00000-0  72817-5 0  9998,2 52120  53.2198  71.0319 0002105  37.1574 322.9563 15.08833130 39471,6917.901,95.438,541.2230000000002,538.31,0.0
52120.0,STARLINK-3534,PAYLOAD,2022-11-25 01:29:04,15.08838139,0.0001966,53.2198,68.95,39.6398,320.4738,0.00010127,1.324e-05,0.0,0 STARLINK-3534,1 52120U 22029AJ  22329.06185640  .00001324  00000-0  10127-3 0  9997,2 52120  53.2198  68.9500 0001966  39.6398 320.4738 15.08838139 39542,6917.886,95.438,541.111,538.391,0.0
52120.0,STARLINK-3534,PAYLOAD,2022-11-25 12:36:46,15.08836362,0.0001807,53.2196,66.8693,41.2899,318.8229,8.2297e-05,1.022e-05,0.0,0 STARLINK-3534,1 52120U 22029AJ  22329.52553809  .00001022  00000-0  82297-4 0  9997,2 52120  53.2196  66.8693 0001807  41.2899 318.8229 15.08836362 39619,6917.892,95.438,541.007,538.506,0.0
52120.0,STARLINK-3534,PAYLOAD,2022-11-25 14:12:09,15.08836381,0.000188,53.2197,66.572,39.5099,320.603,8.1553e-05,1.01e-05,0.0,0 STARLINK-3534,1 52120U 22029AJ  22329.59177851  .00001010  00000-0  81553-4 0  9994,2 52120  53.2197  66.5720 0001880  39.5099 320.6030 15.08836381 39624,6917.891,95.438,541.057,538.456,0.0
52120.0,STARLINK-3534,PAYLOAD,2022-11-26 09:16:46,15.08842775,0.0001981,53.2195,63.0037,38.8464,321.267,0.00011494,1.542e-05,0.0,0 STARLINK-3534,1 52120U 22029AJ  22330.38665338  .00001542  00000-0  11494-3 0  9991,2 52120  53.2195  63.0037 0001981  38.8464 321.2670 15.08842775 39749,6917.871999999999,95.437,541.107,538.366,0.0
52120.0,STARLINK-3534,PAYLOAD,2022-11-26 12:27:33,15.08842629,0.0002042,53.2202,62.4081,39.5695,320.5446,0.00011457,1.536e-05,0.0,0 STARLINK-3534,1 52120U 22029AJ  22330.51913372  .00001536  00000-0  11457-3 0  9992,2 52120  53.2202  62.4081 0002042  39.5695 320.5446 15.08842629 39766,6917.871999999999,95.437,541.15,538.325,0.0
52120.0,STARLINK-3534,PAYLOAD,2022-11-26 14:02:56,15.08843583,0.0002088,53.2205,62.1105,37.9792,322.1347,8.0741e-05,9.97e-06,0.0,0 STARLINK-3534,1 52120U 22029AJ  22330.58537401  .00000997  00000-0  80741-4 0  9997,2 52120  53.2205  62.1105 0002088  37.9792 322.1347 15.08843583 39772,6917.869000000002,95.437,541.179,538.29,0.0
52120.0,STARLINK-3534,PAYLOAD,2022-11-27 05:56:47,15.08842011,0.000198,53.2202,59.1378,37.5805,322.5325,-5.0693e-05,-1.095e-05,0.0,0 STARLINK-3534,1 52120U 22029AJ  22331.24777535 -.00001095  00000-0 -50693-4 0  9990,2 52120  53.2202  59.1378 0001980  37.5805 322.5325 15.08842011 39874,6917.874,95.437,541.109,538.37,0.0
52120.0,STARLINK-3534,PAYLOAD,2022-11-27 12:18:20,15.08833919,0.000204,53.2204,57.9485,36.0657,324.0472,-0.00011214,-2.072e-05,0.0,0 STARLINK-3534,1 52120U 22029AJ  22331.51274221 -.00002072  00000-0 -11214-3 0  9995,2 52120  53.2204  57.9485 0002040  36.0657 324.0472 15.08833919 39910,6917.899,95.438,541.175,538.3530000000002,0.0
52120.0,STARLINK-3534,PAYLOAD,2022-11-28 01:01:25,15.08839359,0.0001994,53.2202,55.5691,38.3332,321.7802,-2.0782e-05,-6.19e-06,0.0,0 STARLINK-3534,1 52120U 22029AJ  22332.04265713 -.00000619  00000-0 -20782-4 0  9996,2 52120  53.2202  55.5691 0001994  38.3332 321.7802 15.08839359 39996,6917.882,95.438,541.127,538.368,0.0
52120.0,STARLINK-3534,PAYLOAD,2022-11-28 10:33:44,15.088367000000002,0.0001973,53.2206,53.7855,34.9432,325.1689,-4.3106e-05,-9.74e-06,0.0,0 STARLINK-3534,1 52120U 22029AJ  22332.44009957 -.00000974  00000-0 -43106-4 0  9995,2 52120  53.2206  53.7855 0001973  34.9432 325.1689 15.08836700 40059,6917.89,95.438,541.12,538.391,0.0
52120.0,STARLINK-3534,PAYLOAD,2022-11-28 12:09:07,15.08833629,0.0002048,53.2204,53.488,36.6273,323.4859,-5.2402e-05,-1.122e-05,0.0,0 STARLINK-3534,1 52120U 22029AJ  22332.50634224 -.00001122  00000-0 -52402-4 0  9998,2 52120  53.2204  53.4880 0002048  36.6273 323.4859 15.08833629 40066,6917.9,95.438,541.182,538.3480000000002,0.0
52120.0,STARLINK-3534,PAYLOAD,2022-11-29 05:38:22,15.08835301,0.000178,53.2205,50.2148,41.3283,318.7844,7.2248e-05,8.62e-06,0.0,0 STARLINK-3534,1 52120U 22029AJ  22333.23497687  .00000862  00000-0  72248-4 0  9997,2 52120  53.2205  50.2148 0001780  41.3283 318.7844 15.08835301 40177,6917.895,95.438,540.991,538.528,0.0
52120.0,STARLINK-3534,PAYLOAD,2022-11-29 11:59:54,15.08841984,0.000201,53.2208,49.0288,32.7297,327.3819,0.00014311,1.99e-05,0.0,0 STARLINK-3534,1 52120U 22029AJ  22333.49993121  .00001990  00000-0  14311-3 0  9998,2 52120  53.2208  49.0288 0002010  32.7297 327.3819 15.08841984 40214,6917.874,95.437,541.13,538.349,0.0
52120.0,STARLINK-3534,PAYLOAD,2022-11-29 15:10:40,15.08837701,0.0002038,53.22,48.4334,35.2446,324.8681,0.00014834,2.073e-05,0.0,0 STARLINK-3534,1 52120U 22029AJ  22333.63241439  .00002073  00000-0  14834-3 0  9995,2 52120  53.2200  48.4334 0002038  35.2446 324.8681 15.08837701 40238,6917.887,95.438,541.1619999999998,538.3430000000002,0.0
52120.0,STARLINK-3534,PAYLOAD,2022-11-30 05:29:09,15.088302300000002,0.0002099,53.2204,45.7552,36.4018,323.7117,3.8525e-07,-2.82e-06,0.0,0 STARLINK-3534,1 52120U 22029AJ  22334.22858715 -.00000282  00000-0  38525-6 0  9999,2 52120  53.2204  45.7552 0002099  36.4018 323.7117 15.08830230 40321,6917.91,95.438,541.227,538.323,0.0
52120.0,STARLINK-3534,PAYLOAD,2022-11-30 11:50:42,15.08831549,0.0002141,53.2204,44.566,37.0562,323.0578,1.0065e-05,-1.28e-06,0.0,0 STARLINK-3534,1 52120U 22029AJ  22334.49354758 -.00000128  00000-0  10065-4 0  9992,2 52120  53.2204  44.5660 0002141  37.0562 323.0578 15.08831549 40369,6917.906,95.438,541.252,538.29,0.0
52120.0,STARLINK-3534,PAYLOAD,2022-12-01 03:44:33,15.08842141,0.0002189,53.2204,41.5933,31.3006,328.8116,-2.8055e-05,-7.35e-06,0.0,0 STARLINK-3534,1 52120U 22029AJ  22335.15594464 -.00000735  00000-0 -28055-4 0  9999,2 52120  53.2204  41.5933 0002189  31.3006 328.8116 15.08842141 40463,6917.874,95.437,541.253,538.225,0.0
52120.0,STARLINK-3534,PAYLOAD,2022-12-01 11:41:29,15.08839165,0.0002176,53.2204,40.1068,32.2499,327.8626,-4.4473e-05,-9.96e-06,0.0,0 STARLINK-3534,1 52120U 22029AJ  22335.48714708 -.00000996  00000-0 -44473-4 0  9991,2 52120  53.2204  40.1068 0002176  32.2499 327.8626 15.08839165 40512,6917.8830000000025,95.438,541.253,538.243,0.0
52120.0,STARLINK-3534,PAYLOAD,2022-12-02 13:07:39,15.08838454,0.0002278,53.2208,35.3487,31.6604,328.4525,0.00012507,1.703e-05,0.0,0 STARLINK-3534,1 52120U 22029AJ  22336.54698310  .00001703  00000-0  12507-3 0  9996,2 52120  53.2208  35.3487 0002278  31.6604 328.4525 15.08838454 40673,6917.885,95.438,541.326,538.174,0.0
52120.0,STARLINK-3534,PAYLOAD,2022-12-03 09:47:40,15.088355900000002,0.0002235,53.2213,31.4852,47.3481,312.7699,4.3175e-05,3.99e-06,0.0,0 STARLINK-3534,1 52120U 22029AJ  22337.40811092  .00000399  00000-0  43175-4 0  9992,2 52120  53.2213  31.4852 0002235  47.3481 312.7699 15.08835590 40803,6917.894,95.438,541.305,538.2130000000002,0.0
52120.0,STARLINK-3534,PAYLOAD,2022-12-03 12:58:26,15.08838824,0.0002378,53.2203,30.8894,37.2211,322.8946,7.1285e-05,8.46e-06,0.0,0 STARLINK-3534,1 52120U 22029AJ  22337.54058833  .00000846  00000-0  71285-4 0  9993,2 52120  53.2203  30.8894 0002378  37.2211 322.8946 15.08838824 40820,6917.884,95.438,541.394,538.104,0.0
52120.0,STARLINK-3534,PAYLOAD,2022-12-03 20:55:21,15.08849159,0.0002347,53.2204,29.4031,37.761,322.3546,7.026399999999999e-05,8.3e-06,0.0,0 STARLINK-3534,1 52120U 22029AJ  22337.87178101  .00000830  00000-0  70264-4 0  9999,2 52120  53.2204  29.4031 0002347  37.7610 322.3546 15.08849159 40871,6917.852,95.437,541.341,538.094,0.0
52120.0,STARLINK-3534,PAYLOAD,2022-12-04 12:49:12,15.08871205,0.0002233,53.2203,26.4296,43.4974,316.6194,-0.0002949,-4.983e-05,0.0,0 STARLINK-3534,1 52120U 22029AJ  22338.53417332 -.00004983  00000-0 -29490-3 0  9994,2 52120  53.2203  26.4296 0002233  43.4974 316.6194 15.08871205 40974,6917.785,95.436,541.195,538.105,0.0
52120.0,STARLINK-3534,PAYLOAD,2022-12-04 20:46:09,15.08830444,0.0002081,53.2208,24.9407,36.6755,323.4379,8.473600000000001e-05,1.06e-05,0.0,0 STARLINK-3534,1 52120U 22029AJ  22338.86538994  .00001060  00000-0  84736-4 0  9994,2 52120  53.2208  24.9407 0002081  36.6755 323.4379 15.08830444 41026,6917.91,95.438,541.214,538.335,0.0
